[{"OBJECT_NAME":"STARLINK-34747","OBJECT_ID":"2025-158R","EPOCH":"2026-03-09T14:38:35.287296","MEAN_MOTION":15.05662435,"ECCENTRICITY":0.0002311,"INCLINATION":97.6019,"RA_OF_ASC_NODE":294.0063,"ARG_OF_PERICENTER":82.9741,"MEAN_ANOMALY":277.1748,"EPHEMERIS_TYPE":0,"CLASSIFICATION_TYPE":"U","NORAD_CAT_ID":64947,"ELEMENT_SET_NO":999,"REV_AT_EPOCH":3534,"BSTAR":0.00038152,"MEAN_MOTION_DOT":5.45e-5,"MEAN_MOTION_DDOT":0},{"OBJECT_NAME":"DELTA 1 DEB","OBJECT_ID":"1977-065GK","EPOCH":"2026-03-09T12:42:00.380448","MEAN_MOTION":14.06309065,"ECCENTRICITY":0.05229834,"INCLINATION":29.0296,"RA_OF_ASC_NODE":199.7344,"ARG_OF_PERICENTER":45.239,"MEAN_ANOMALY":318.9544,"EPHEMERIS_TYPE":0,"CLASSIFICATION_TYPE":"U","NORAD_CAT_ID":39098,"ELEMENT_SET_NO":999,"REV_AT_EPOCH":61131,"BSTAR":0.00047724368,"MEAN_MOTION_DOT":2.979e-5,"MEAN_MOTION_DDOT":0}]
